NORAD_CAT_ID,OBJECT_NAME,OBJECT_TYPE,EPOCH,MEAN_MOTION,ECCENTRICITY,INCLINATION,RA_OF_ASC_NODE,ARG_OF_PERICENTER,MEAN_ANOMALY,BSTAR,MEAN_MOTION_DOT,MEAN_MOTION_DDOT,TLE_LINE0,TLE_LINE1,TLE_LINE2,SEMIMAJOR_AXIS,PERIOD,APOGEE,PERIGEE,DECAYED
37853,RAX-2,PAYLOAD,2022-09-09 09:13:36,15.10286286,0.0150797,101.7158,40.7489,196.7571,162.8632,0.00061924,0.00013179,0.0,0 RAX-2,1 37853U 11061D   22252.38445293  .00013179  00000-0  61924-3 0  9992,2 37853 101.7158  40.7489 0150797 196.7571 162.8632 15.10286286593350,6913.4630000000025,95.346,639.581,431.075,0.0
37853,RAX-2,PAYLOAD,2022-09-09 23:32:12,15.103010199999998,0.015075,101.716,41.658,194.9989,164.673,0.00059443,0.00012647,0.0,0 RAX-2,1 37853U 11061D   22252.98070048  .00012647  00000-0  59443-3 0  9992,2 37853 101.7160  41.6580 0150750 194.9989 164.6730 15.10301020593923,6913.418000000002,95.345,639.503,431.06300000000016,0.0
37853,RAX-2,PAYLOAD,2022-09-10 09:04:36,15.1031179,0.0150715,101.7162,42.2641,193.8223,165.8844,0.00058869,0.00012526,0.0,0 RAX-2,1 37853U 11061D   22253.37819528  .00012526  00000-0  58869-3 0  9997,2 37853 101.7162  42.2641 0150715 193.8223 165.8844 15.10311790593508,6913.385,95.345,639.445,431.055,0.0
37853,RAX-2,PAYLOAD,2022-09-10 20:12:23,15.10326364,0.0150657,101.7165,42.9713,192.4513,167.2962,0.00066151,0.00014102,0.0,0 RAX-2,1 37853U 11061D   22253.84193531  .00014102  00000-0  66151-3 0  9993,2 37853 101.7165  42.9713 0150657 192.4513 167.2962 15.10326364593577,6913.3409999999985,95.344,639.36,431.052,0.0
37853,RAX-2,PAYLOAD,2022-09-11 08:55:33,15.10343282,0.0150618,101.7168,43.7795,190.8675,168.9273,0.0006896,0.00014715,0.0,0 RAX-2,1 37853U 11061D   22254.37191850  .00014715  00000-0  68960-3 0  9994,2 37853 101.7168  43.7795 0150618 190.8675 168.9273 15.10343282594131,6913.2890000000025,95.343,639.281,431.028,0.0
37853,RAX-2,PAYLOAD,2022-09-11 15:17:08,15.10350119,0.0150587,101.717,44.1836,190.0784,169.7402,0.00066186,0.00014117,0.0,0 RAX-2,1 37853U 11061D   22254.63690808  .00014117  00000-0  66186-3 0  9994,2 37853 101.7170  44.1836 0150587 190.0784 169.7402 15.10350119593693,6913.268,95.342,639.238,431.029,0.0
37853,RAX-2,PAYLOAD,2022-09-12 08:46:29,15.10376615,0.015047799999999997,101.7176,45.2951,187.9076,171.9765,0.00075187,0.0001607,0.0,0 RAX-2,1 37853U 11061D   22255.36562103  .00016070  00000-0  75187-3 0  9992,2 37853 101.7176  45.2951 0150478 187.9076 171.9765 15.10376615593806,6913.188,95.34,639.081,431.024,0.0
37853,RAX-2,PAYLOAD,2022-09-12 15:08:04,15.1038638,0.0150438,101.7177,45.6994,187.1125,172.7956,0.00080667,0.00017259,0.0,0 RAX-2,1 37853U 11061D   22255.63060459  .00017259  00000-0  80667-3 0  9998,2 37853 101.7177  45.6994 0150438 187.1125 172.7956 15.10386380594320,6913.158,95.34,639.023,431.023,0.0
37853,RAX-2,PAYLOAD,2022-09-13 08:37:23,15.104112900000002,0.0150358,101.718,46.8111,184.9252,175.0492,0.00074984,0.00016037,0.0,0 RAX-2,1 37853U 11061D   22256.35930074  .00016037  00000-0  74984-3 0  9995,2 37853 101.7180  46.8111 0150358 184.9252 175.0492 15.10411290593953,6913.0819999999985,95.338,638.89,431.003,0.0
37853,RAX-2,PAYLOAD,2022-09-14 03:42:05,15.10437994,0.0150279,101.7182,48.024,182.5324,177.5147,0.00073861,0.00015802,0.0,0 RAX-2,1 37853U 11061D   22257.15422844  .00015802  00000-0  73861-3 0  9997,2 37853 101.7182  48.0240 0150279 182.5324 177.5147 15.10437994594558,6913.0,95.337,638.753,430.977,0.0
37853,RAX-2,PAYLOAD,2022-09-14 08:28:15,15.10444846,0.015026499999999996,101.7183,48.3271,181.93400000000003,178.1312,0.00073361,0.00015697,0.0,0 RAX-2,1 37853U 11061D   22257.35295821  .00015697  00000-0  73361-3 0  9999,2 37853 101.7183  48.3271 0150265 181.9340 178.1312 15.10444846594108,6912.979,95.336,638.722,430.966,0.0
37853,RAX-2,PAYLOAD,2022-09-15 08:19:05,15.10480912,0.015018200000000002,101.7182,49.8431,178.9467,181.2092,0.00087336,0.00018741,0.0,0 RAX-2,1 37853U 11061D   22258.34659433  .00018741  00000-0  87336-3 0  9992,2 37853 101.7182  49.8431 0150182 178.9467 181.2092 15.10480912594255,6912.869000000002,95.334,638.553,430.915,0.0
37853,RAX-2,PAYLOAD,2022-09-15 22:37:35,15.104964,0.0150141,101.7181,50.7526,177.1705,183.0394,0.00074596,0.00015983,0.0,0 RAX-2,1 37853U 11061D   22258.94276622  .00015983  00000-0  74596-3 0  9992,2 37853 101.7181  50.7526 0150141 177.1705 183.0394 15.10496400594828,6912.821999999999,95.333,638.477,430.897,0.0
37853,RAX-2,PAYLOAD,2022-09-16 09:45:17,15.10509811,0.015009,101.7178,51.4597,175.7845,184.4674,0.00067806,0.00014513,0.0,0 RAX-2,1 37853U 11061D   22259.40645017  .00014513  00000-0  67806-3 0  9996,2 37853 101.7178  51.4597 0150090 175.7845 184.4674 15.10509811594414,6912.781,95.332,638.4,430.892,0.0
37853,RAX-2,PAYLOAD,2022-09-16 20:52:59,15.10522507,0.015004,101.7177,52.1671,174.421,185.8721,0.00067022,0.00014347,0.0,0 RAX-2,1 37853U 11061D   22259.87013036  .00014347  00000-0  67022-3 0  9992,2 37853 101.7177  52.1671 0150040 174.4210 185.8721 15.10522507594483,6912.7419999999975,95.331,638.326,430.889,0.0
37853,RAX-2,PAYLOAD,2022-09-17 00:03:45,15.10526066,0.0150037,101.7178,52.3693,174.0272,186.2777,0.00066714,0.00014281,0.0,0 RAX-2,1 37853U 11061D   22260.00260973  .00014281  00000-0  66714-3 0  9997,2 37853 101.7178  52.3693 0150037 174.0272 186.2777 15.10526066594985,6912.732,95.331,638.313,430.88,0.0
37853,RAX-2,PAYLOAD,2022-09-17 09:36:03,15.10534966,0.0149994,101.7178,52.9758,172.8606,187.4794,0.00057229,0.00012225,0.0,0 RAX-2,1 37853U 11061D   22260.40004574  .00012225  00000-0  57229-3 0  9991,2 37853 101.7178  52.9758 0149994 172.8606 187.4794 15.10534966594564,6912.704000000002,95.33,638.256,430.883,0.0
37853,RAX-2,PAYLOAD,2022-09-17 22:19:08,15.10549426,0.0149915,101.7177,53.784,171.2947,189.0922,0.00061845,0.00013229,0.0,0 RAX-2,1 37853U 11061D   22260.92995659  .00013229  00000-0  61845-3 0  9995,2 37853 101.7177  53.7840 0149915 171.2947 189.0922 15.10549426594645,6912.66,95.33,638.156,430.894,0.0
37853,RAX-2,PAYLOAD,2022-09-18 09:26:49,15.10561605,0.0149875,101.7177,54.4914,169.9235,190.5043,0.0006062999999999999,0.00012968,0.0,0 RAX-2,1 37853U 11061D   22261.39362429  .00012968  00000-0  60630-3 0  9990,2 37853 101.7177  54.4914 0149875 169.9235 190.5043 15.10561605594716,6912.623000000001,95.329,638.091,430.885,0.0
37853,RAX-2,PAYLOAD,2022-09-19 09:17:32,15.10590537,0.0149768,101.7175,56.0071,166.975,193.54,0.00065547,0.00014043,0.0,0 RAX-2,1 37853U 11061D   22262.38718434  .00014043  00000-0  65547-3 0  9999,2 37853 101.7175  56.0071 0149768 166.9750 193.5400 15.10590537594868,6912.535,95.327,637.928,430.872,0.0
37853,RAX-2,PAYLOAD,2022-09-20 09:08:14,15.10619929,0.0149686,101.7176,57.5229,164.0013,196.6005,0.00065975,0.00014144,0.0,0 RAX-2,1 37853U 11061D   22263.38072503  .00014144  00000-0  65975-3 0  9997,2 37853 101.7176  57.5229 0149686 164.0013 196.6005 15.10619929595010,6912.445,95.325,637.78,430.841,0.0
37853,RAX-2,PAYLOAD,2022-09-21 08:58:54,15.10647444,0.014960299999999998,101.7178,59.0389,161.0099,199.6778,0.00062526,0.00013402,0.0,0 RAX-2,1 37853U 11061D   22264.37424705  .00013402  00000-0  62526-3 0  9997,2 37853 101.7178  59.0389 0149603 161.0099 199.6778 15.10647444595165,6912.361,95.323,637.637,430.815,0.0
37853,RAX-2,PAYLOAD,2022-09-22 04:03:26,15.10665841,0.0149561,101.7179,60.2518,158.6137,202.1416,0.00053456,0.00011436,0.0,0 RAX-2,1 37853U 11061D   22265.16905220  .00011436  00000-0  53456-3 0  9998,2 37853 101.7179  60.2518 0149561 158.6137 202.1416 15.10665841595768,6912.305,95.322,637.5509999999998,430.789,0.0
37853,RAX-2,PAYLOAD,2022-09-22 21:32:33,15.10684375,0.0149524,101.7179,61.3637,156.4263,204.3898,0.00057545,0.0001233,0.0,0 RAX-2,1 37853U 11061D   22265.89761471  .00012330  00000-0  57545-3 0  9993,2 37853 101.7179  61.3637 0149524 156.4263 204.3898 15.10684375595397,6912.249,95.321,637.4680000000002,430.759,0.0
37853,RAX-2,PAYLOAD,2022-09-23 08:40:11,15.1069636,0.014950899999999996,101.7179,62.0713,155.0333,205.821,0.00058978,0.00012646,0.0,0 RAX-2,1 37853U 11061D   22266.36124063  .00012646  00000-0  58978-3 0  9997,2 37853 101.7179  62.0713 0149509 155.0333 205.8210 15.10696360595465,6912.212,95.32,637.4209999999998,430.733,0.0
37853,RAX-2,PAYLOAD,2022-09-24 10:06:09,15.10724681,0.0149445,101.718,63.6885,151.8685,209.0706,0.0006211000000000001,0.00013337,0.0,0 RAX-2,1 37853U 11061D   22267.42094283  .00013337  00000-0  62110-3 0  9996,2 37853 101.7180  63.6885 0149445 151.8685 209.0706 15.10724681596103,6912.126,95.318,637.289,430.692,0.0
37853,RAX-2,PAYLOAD,2022-09-25 09:56:43,15.10754158,0.0149337,101.7181,65.2047,148.9154,212.1003,0.00064573,0.00013881,0.0,0 RAX-2,1 37853U 11061D   22268.41439330  .00013881  00000-0  64573-3 0  9991,2 37853 101.7181  65.2047 0149337 148.9154 212.1003 15.10754158595779,6912.036,95.317,637.123,430.67800000000005,0.0
37853,RAX-2,PAYLOAD,2022-09-26 00:15:03,15.10768853,0.0149246,101.7183,66.1144,147.1444,213.9158,0.0005784,0.00012415,0.0,0 RAX-2,1 37853U 11061D   22269.01045475  .00012415  00000-0  57840-3 0  9992,2 37853 101.7183  66.1144 0149246 147.1444 213.9158 15.10768853596342,6911.991,95.316,637.015,430.697,0.0
37853,RAX-2,PAYLOAD,2022-09-26 09:47:16,15.10779271,0.0149202,101.7184,66.7208,145.9632,215.1262,0.00056155,0.0001205,0.0,0 RAX-2,1 37853U 11061D   22269.40782549  .00012050  00000-0  56155-3 0  9998,2 37853 101.7184  66.7208 0149202 145.9632 215.1262 15.10779271595926,6911.959,95.315,636.952,430.696,0.0
37853,RAX-2,PAYLOAD,2022-09-27 04:51:41,15.10803662,0.014903799999999997,101.7188,67.9336,143.5902,217.5562,0.00075068,0.00016176,0.0,0 RAX-2,1 37853U 11061D   22270.20255898  .00016176  00000-0  75068-3 0  9997,2 37853 101.7188  67.9336 0149038 143.5902 217.5562 15.10803662596524,6911.885,95.314,636.763,430.736,0.0
37853,RAX-2,PAYLOAD,2022-09-27 09:37:47,15.10810949,0.0148982,101.7188,68.237,142.9909,218.1694,0.00078642,0.00016956,0.0,0 RAX-2,1 37853U 11061D   22270.40124007  .00016956  00000-0  78642-3 0  9993,2 37853 101.7188  68.2370 0148982 142.9909 218.1694 15.10810949596072,6911.863,95.313,636.702,430.753,0.0
